OBJECT_NAME,OBJECT_ID,EPOCH,MEAN_MOTION,ECCENTRICITY,INCLINATION,RA_OF_ASC_NODE,ARG_OF_PERICENTER,MEAN_ANOMALY,EPHEMERIS_TYPE,CLASSIFICATION_TYPE,NORAD_CAT_ID,ELEMENT_SET_NO,REV_AT_EPOCH,BSTAR,MEAN_MOTION_DOT,MEAN_MOTION_DDOT
JILIN-1 GAOFEN 3D28,2022-048C,2026-07-10T01:15:46.209888,15.86277134,.00042798,97.5652,307.4350,250.5223,109.5586,0,U,52445,999,23314,.7868424E-3,.199157E-2,0
JILIN-1 GAOFEN 3D29,2022-048D,2026-07-10T06:46:07.091328,15.81968246,.0004013,97.5711,307.7859,234.8784,125.2109,0,U,52446,999,23314,.67233181E-3,.13786E-2,0
JILIN-1 GAOFEN 3D31,2022-048F,2026-07-10T06:41:29.468256,15.91509655,.00050117,97.5687,309.0530,243.8447,116.2310,0,U,52448,999,23324,.77237261E-3,.247503E-2,.24904877E-4
STARLINK-3909,2022-049B,2026-07-10T03:13:50.648736,15.08838572,.00009997,53.1576,239.0808,95.5125,264.5981,0,U,52452,999,23059,.96987057E-4,.1256E-4,0
STARLINK-3872,2022-049C,2026-07-10T02:47:22.811136,15.08832019,.00011351,53.1576,239.2904,86.1826,273.9295,0,U,52453,999,23059,.61907436E-4,.697E-5,0
STARLINK-3888,2022-049D,2026-07-10T02:52:37.497216,15.08844938,.00009961,53.1580,239.2737,82.9771,277.1334,0,U,52454,999,23059,.77964106E-4,.953E-5,0
STARLINK-3890,2022-049E,2026-07-09T10:49:34.822272,15.08832597,.00010611,53.1560,242.2803,82.6733,277.4379,0,U,52455,999,23049,.42415234E-4,.387E-5,0
STARLINK-3896,2022-049F,2026-07-08T10:53:28.894560,15.08836662,.00011396,53.1580,246.7656,82.0057,278.1064,0,U,52456,999,23034,.20856218E-3,.3033E-4,0
STARLINK-3899,2022-049G,2026-07-10T02:31:26.734656,15.08837837,.00012929,53.1591,239.3314,95.0534,265.0605,0,U,52457,999,23059,.39875298E-4,.347E-5,0
STARLINK-3898,2022-049H,2026-07-09T04:12:09.583488,15.08827781,.00010013,53.1580,243.5215,92.5244,267.5862,0,U,52458,999,23045,.11254848E-4,-.109E-5,0
STARLINK-3856,2022-049J,2026-07-10T02:06:17.086464,15.08850403,.00003479,53.1563,229.4174,22.3208,337.7798,0,U,52459,999,23072,.1840114E-3,.2643E-4,0
STARLINK-3900,2022-049L,2026-07-10T02:02:18.680352,15.08833398,.00015752,53.1593,219.4304,94.6294,265.4877,0,U,52461,999,23086,-.294742E-6,-.293E-5,0
STARLINK-3903,2022-049M,2026-07-09T10:03:14.495328,15.08826978,.00009449,53.1582,232.4362,78.5770,281.5328,0,U,52462,999,23062,.8770068E-4,.1108E-4,0
STARLINK-3885,2022-049N,2026-07-09T08:27:47.493792,15.08831283,.00007669,53.1573,222.7215,78.2557,281.8520,0,U,52463,999,23075,.47185927E-4,.463E-5,0
STARLINK-3904,2022-049P,2026-07-09T10:07:09.837696,15.08829949,.000077,53.1574,232.4136,83.1554,276.9525,0,U,52464,999,23062,.1118027E-3,.1492E-4,0
STARLINK-3863,2022-049Q,2026-07-10T01:51:44.491392,15.08830999,.00011218,53.1588,219.4644,75.3239,284.7877,0,U,52465,999,23086,.45450148E-4,.435E-5,0
STARLINK-3873,2022-049S,2026-07-09T09:56:32.014752,15.08829251,.00008028,53.1581,232.4465,80.3386,279.7696,0,U,52467,999,23062,.11951066E-4,-.98E-6,0
STARLINK-3864,2022-049T,2026-07-09T03:13:48.149184,15.08832982,.00010689,53.1574,233.7034,74.7518,285.3592,0,U,52468,999,23058,.34691626E-4,.264E-5,0
STARLINK-3828,2022-049U,2026-07-10T03:15:12.268224,15.08832318,.00008556,53.1579,229.2110,81.5158,278.5930,0,U,52469,999,23073,.30292235E-4,.194E-5,0
STARLINK-3859,2022-049V,2026-07-08T09:33:59.008032,15.08827376,.00011997,53.1575,237.0100,87.1287,272.9841,0,U,52470,999,23047,.33182077E-3,.4995E-4,0
STARLINK-3862,2022-049W,2026-07-10T08:00:03.000384,15.31709932,.00013676,53.1611,225.7852,74.4443,163.8689,0,U,52471,999,575,-.42708058E-3,-.13598E-3,0
STARLINK-3881,2022-049X,2026-07-10T02:48:41.544000,15.08833613,.00012416,53.1584,229.2861,73.7590,286.3538,0,U,52472,999,23073,.46346477E-4,.45E-5,0
STARLINK-3879,2022-049Y,2026-07-10T06:10:02.966592,15.08832179,.0001213,53.1586,228.6565,78.4723,281.6405,0,U,52473,999,23075,.4425459E-5,-.218E-5,0
STARLINK-3882,2022-049AA,2026-07-10T03:20:31.543872,15.08826287,.00011665,53.1600,229.4092,78.1632,281.9490,0,U,52475,999,23073,-.53759512E-4,-.1143E-4,0
STARLINK-3835,2022-049AB,2026-07-10T02:09:03.112704,15.08833603,.00014684,53.1592,219.6511,83.7463,276.3696,0,U,52476,999,23210,.63375468E-4,.721E-5,0
STARLINK-3860,2022-049AC,2026-07-10T01:46:25.720320,15.08832894,.00009811,53.1584,219.4793,95.3028,264.8076,0,U,52477,999,23210,.29180655E-4,.177E-5,0
STARLINK-3825,2022-049AD,2026-07-10T02:38:04.774272,15.08829479,.00014997,53.1588,229.3175,89.1930,270.9233,0,U,52478,999,23197,.35086684E-4,.27E-5,0
STARLINK-3878,2022-049AE,2026-07-10T01:25:13.977984,15.08831957,.00010816,53.1574,219.5473,78.5798,281.5315,0,U,52479,999,23210,.33671729E-4,.248E-5,0
STARLINK-3839,2022-049AF,2026-07-10T02:32:47.488416,15.08837811,.00011316,53.1581,229.3362,79.7161,280.3958,0,U,52480,999,23073,.85451585E-4,.1072E-4,0
STARLINK-3813,2022-049AH,2026-07-10T01:14:38.784192,15.08827417,.00012874,53.1587,219.5813,92.4897,267.6242,0,U,52482,999,23086,.9820077E-5,-.132E-5,0
