JILIN-1 GAOFEN 3D28     
1 52445U 22048C   26191.05261817  .00199157  00000+0  78684-3 0  9992
2 52445  97.5652 307.4350 0004279 250.5223 109.5586 15.86277134233140
JILIN-1 GAOFEN 3D29     
1 52446U 22048D   26191.28202652  .00137860  00000+0  67233-3 0  9991
2 52446  97.5711 307.7859 0004013 234.8784 125.2109 15.81968246233149
JILIN-1 GAOFEN 3D31     
1 52448U 22048F   26191.27881329  .00247503  24905-4  77237-3 0  9992
2 52448  97.5687 309.0530 0005011 243.8447 116.2310 15.91509655233240
STARLINK-3909           
1 52452U 22049B   26191.13461399  .00001256  00000+0  96987-4 0  9996
2 52452  53.1576 239.0808 0000999  95.5125 264.5981 15.08838572230592
STARLINK-3872           
1 52453U 22049C   26191.11623624  .00000697  00000+0  61907-4 0  9998
2 52453  53.1576 239.2904 0001135  86.1826 273.9295 15.08832019230591
STARLINK-3888           
1 52454U 22049D   26191.11987844  .00000953  00000+0  77964-4 0  9991
2 52454  53.1580 239.2737 0000996  82.9771 277.1334 15.08844938230591
STARLINK-3890           
1 52455U 22049E   26190.45109748  .00000387  00000+0  42415-4 0  9991
2 52455  53.1560 242.2803 0001061  82.6733 277.4379 15.08832597230496
STARLINK-3896           
1 52456U 22049F   26189.45380665  .00003033  00000+0  20856-3 0  9994
2 52456  53.1580 246.7656 0001139  82.0057 278.1064 15.08836662230343
STARLINK-3899           
1 52457U 22049G   26191.10517054  .00000347  00000+0  39875-4 0  9991
2 52457  53.1591 239.3314 0001292  95.0534 265.0605 15.08837837230597
STARLINK-3898           
1 52458U 22049H   26190.17511092 -.00000109  00000+0  11255-4 0  9993
2 52458  53.1580 243.5215 0001001  92.5244 267.5862 15.08827781230455
STARLINK-3856           
1 52459U 22049J   26191.08769776  .00002643  00000+0  18401-3 0  9992
2 52459  53.1563 229.4174 0000347  22.3208 337.7798 15.08850403230722
STARLINK-3900           
1 52461U 22049L   26191.08493843 -.00000293  00000+0 -29474-6 0  9990
2 52461  53.1593 219.4304 0001575  94.6294 265.4877 15.08833398230867
STARLINK-3903           
1 52462U 22049M   26190.41891777  .00001108  00000+0  87701-4 0  9994
2 52462  53.1582 232.4362 0000944  78.5770 281.5328 15.08826978230624
STARLINK-3885           
1 52463U 22049N   26190.35263303  .00000463  00000+0  47186-4 0  9992
2 52463  53.1573 222.7215 0000766  78.2557 281.8520 15.08831283230752
STARLINK-3904           
1 52464U 22049P   26190.42164164  .00001492  00000+0  11180-3 0  9993
2 52464  53.1574 232.4136 0000770  83.1554 276.9525 15.08829949230623
STARLINK-3863           
1 52465U 22049Q   26191.07759828  .00000435  00000+0  45450-4 0  9997
2 52465  53.1588 219.4644 0001121  75.3239 284.7877 15.08830999230862
STARLINK-3873           
1 52467U 22049S   26190.41425943 -.00000098  00000+0  11951-4 0  9999
2 52467  53.1581 232.4465 0000802  80.3386 279.7696 15.08829251230623
STARLINK-3864           
1 52468U 22049T   26190.13458506  .00000264  00000+0  34692-4 0  9991
2 52468  53.1574 233.7034 0001068  74.7518 285.3592 15.08832982230589
STARLINK-3828           
1 52469U 22049U   26191.13555866  .00000194  00000+0  30292-4 0  9994
2 52469  53.1579 229.2110 0000855  81.5158 278.5930 15.08832318230739
STARLINK-3859           
1 52470U 22049V   26189.39859963  .00004995  00000+0  33182-3 0  9999
2 52470  53.1575 237.0100 0001199  87.1287 272.9841 15.08827376230478
STARLINK-3862           
1 52471U 22049W   26191.33336806 -.00013598  00000+0 -42708-3 0  9998
2 52471  53.1611 225.7852 0001367  74.4443 163.8689 15.31709932  5750
STARLINK-3881           
1 52472U 22049X   26191.11714750  .00000450  00000+0  46346-4 0  9997
2 52472  53.1584 229.2861 0001241  73.7590 286.3538 15.08833613230735
STARLINK-3879           
1 52473U 22049Y   26191.25697878 -.00000218  00000+0  44255-5 0  9995
2 52473  53.1586 228.6565 0001213  78.4723 281.6405 15.08832179230750
STARLINK-3882           
1 52475U 22049AA  26191.13925398 -.00001143  00000+0 -53760-4 0  9994
2 52475  53.1600 229.4092 0001166  78.1632 281.9490 15.08826287230734
STARLINK-3835           
1 52476U 22049AB  26191.08961936  .00000721  00000+0  63375-4 0  9999
2 52476  53.1592 219.6511 0001468  83.7463 276.3696 15.08833603232100
STARLINK-3860           
1 52477U 22049AC  26191.07390880  .00000177  00000+0  29181-4 0  9995
2 52477  53.1584 219.4793 0000981  95.3028 264.8076 15.08832894232102
STARLINK-3825           
1 52478U 22049AD  26191.10977748  .00000270  00000+0  35087-4 0  9990
2 52478  53.1588 229.3175 0001499  89.1930 270.9233 15.08829479231971
STARLINK-3878           
1 52479U 22049AE  26191.05918956  .00000248  00000+0  33672-4 0  9994
2 52479  53.1574 219.5473 0001081  78.5798 281.5315 15.08831957232109
STARLINK-3839           
1 52480U 22049AF  26191.10610519  .00001072  00000+0  85452-4 0  9995
2 52480  53.1581 229.3362 0001131  79.7161 280.3958 15.08837811230730
STARLINK-3813           
1 52482U 22049AH  26191.05183778 -.00000132  00000+0  98201-5 0  9997
2 52482  53.1587 219.5813 0001287  92.4897 267.6242 15.08827417230869
